[{"OBJECT_NAME":"FENGYUN 1C DEB","OBJECT_ID":"1999-025CUA","EPOCH":"2026-03-05T08:16:49.179360","MEAN_MOTION":13.82350897,"ECCENTRICITY":0.0136282,"INCLINATION":99.5725,"RA_OF_ASC_NODE":110.8204,"ARG_OF_PERICENTER":353.5239,"MEAN_ANOMALY":64.2909,"EPHEMERIS_TYPE":0,"CLASSIFICATION_TYPE":"U","NORAD_CAT_ID":32180,"ELEMENT_SET_NO":999,"REV_AT_EPOCH":95409,"BSTAR":0.00010352,"MEAN_MOTION_DOT":7.3e-7,"MEAN_MOTION_DDOT":0},{"OBJECT_NAME":"FENGYUN 1C DEB","OBJECT_ID":"1999-025CUB","EPOCH":"2026-03-03T06:49:14.289888","MEAN_MOTION":14.56875239,"ECCENTRICITY":0.00728187,"INCLINATION":99.4724,"RA_OF_ASC_NODE":181.9411,"ARG_OF_PERICENTER":204.2643,"MEAN_ANOMALY":186.6844,"EPHEMERIS_TYPE":0,"CLASSIFICATION_TYPE":"U","NORAD_CAT_ID":32181,"ELEMENT_SET_NO":999,"REV_AT_EPOCH":97893,"BSTAR":0.001528352,"MEAN_MOTION_DOT":7.05e-5,"MEAN_MOTION_DDOT":0},{"OBJECT_NAME":"FENGYUN 1C DEB","OBJECT_ID":"1999-025CUD","EPOCH":"2026-03-06T02:18:48.762144","MEAN_MOTION":14.10310762,"ECCENTRICITY":0.00432941,"INCLINATION":98.701,"RA_OF_ASC_NODE":118.6551,"ARG_OF_PERICENTER":181.9964,"MEAN_ANOMALY":178.1041,"EPHEMERIS_TYPE":0,"CLASSIFICATION_TYPE":"U","NORAD_CAT_ID":32183,"ELEMENT_SET_NO":999,"REV_AT_EPOCH":73939,"BSTAR":0.00065829362,"MEAN_MOTION_DOT":1.136e-5,"MEAN_MOTION_DDOT":0},{"OBJECT_NAME":"FENGYUN 1C DEB","OBJECT_ID":"1999-025CUE","EPOCH":"2026-02-18T09:12:07.488000","MEAN_MOTION":15.64462753,"ECCENTRICITY":0.0038431,"INCLINATION":98.1181,"RA_OF_ASC_NODE":202.4936,"ARG_OF_PERICENTER":104.8832,"MEAN_ANOMALY":255.6686,"EPHEMERIS_TYPE":0,"CLASSIFICATION_TYPE":"U","NORAD_CAT_ID":32184,"ELEMENT_SET_NO":999,"REV_AT_EPOCH":99453,"BSTAR":0.0020372,"MEAN_MOTION_DOT":0.00207585,"MEAN_MOTION_DDOT":0},{"OBJECT_NAME":"FENGYUN 1C DEB","OBJECT_ID":"1999-025CUF","EPOCH":"2026-03-06T13:25:01.892352","MEAN_MOTION":15.16639487,"ECCENTRICITY":0.01283538,"INCLINATION":98.8973,"RA_OF_ASC_NODE":290.2927,"ARG_OF_PERICENTER":97.5584,"MEAN_ANOMALY":264.0246,"EPHEMERIS_TYPE":0,"CLASSIFICATION_TYPE":"U","NORAD_CAT_ID":32185,"ELEMENT_SET_NO":999,"REV_AT_EPOCH":96280,"BSTAR":0.003511068,"MEAN_MOTION_DOT":0.00085678,"MEAN_MOTION_DDOT":0},{"OBJECT_NAME":"FENGYUN 1C DEB","OBJECT_ID":"1999-025CUG","EPOCH":"2026-02-25T22:03:22.211712","MEAN_MOTION":13.76696057,"ECCENTRICITY":0.02708942,"INCLINATION":99.5999,"RA_OF_ASC_NODE":113.1799,"ARG_OF_PERICENTER":4.8015,"MEAN_ANOMALY":175.9966,"EPHEMERIS_TYPE":0,"CLASSIFICATION_TYPE":"U","NORAD_CAT_ID":32186,"ELEMENT_SET_NO":999,"REV_AT_EPOCH":63644,"BSTAR":0.00065981841,"MEAN_MOTION_DOT":8.03e-6,"MEAN_MOTION_DDOT":0},{"OBJECT_NAME":"FENGYUN 1C DEB","OBJECT_ID":"1999-025CUH","EPOCH":"2026-03-05T03:46:19.304832","MEAN_MOTION":13.50552022,"ECCENTRICITY":0.0292474,"INCLINATION":99.4936,"RA_OF_ASC_NODE":144.5032,"ARG_OF_PERICENTER":299.5418,"MEAN_ANOMALY":87.9819,"EPHEMERIS_TYPE":0,"CLASSIFICATION_TYPE":"U","NORAD_CAT_ID":32187,"ELEMENT_SET_NO":999,"REV_AT_EPOCH":67371,"BSTAR":0.0004179559,"MEAN_MOTION_DOT":3.06e-6,"MEAN_MOTION_DDOT":0},{"OBJECT_NAME":"FENGYUN 1C DEB","OBJECT_ID":"1999-025CUM","EPOCH":"2026-02-27T09:31:42.429504","MEAN_MOTION":14.25723753,"ECCENTRICITY":0.00904579,"INCLINATION":98.6977,"RA_OF_ASC_NODE":118.9282,"ARG_OF_PERICENTER":323.973,"MEAN_ANOMALY":35.5374,"EPHEMERIS_TYPE":0,"CLASSIFICATION_TYPE":"U","NORAD_CAT_ID":32191,"ELEMENT_SET_NO":999,"REV_AT_EPOCH":65593,"BSTAR":0.0010874169,"MEAN_MOTION_DOT":2.65e-5,"MEAN_MOTION_DDOT":0},{"OBJECT_NAME":"FENGYUN 1C DEB","OBJECT_ID":"1999-025CUN","EPOCH":"2026-03-06T14:18:19.162368","MEAN_MOTION":13.82588065,"ECCENTRICITY":0.01810202,"INCLINATION":98.6458,"RA_OF_ASC_NODE":294.6986,"ARG_OF_PERICENTER":295.4056,"MEAN_ANOMALY":62.846,"EPHEMERIS_TYPE":0,"CLASSIFICATION_TYPE":"U","NORAD_CAT_ID":32192,"ELEMENT_SET_NO":999,"REV_AT_EPOCH":93871,"BSTAR":0.00037141855,"MEAN_MOTION_DOT":4.16e-6,"MEAN_MOTION_DDOT":0},{"OBJECT_NAME":"FENGYUN 1C DEB","OBJECT_ID":"1999-025CUT","EPOCH":"2026-03-04T16:58:56.276256","MEAN_MOTION":14.32888498,"ECCENTRICITY":0.01619186,"INCLINATION":98.9013,"RA_OF_ASC_NODE":340.0425,"ARG_OF_PERICENTER":350.5551,"MEAN_ANOMALY":38.7411,"EPHEMERIS_TYPE":0,"CLASSIFICATION_TYPE":"U","NORAD_CAT_ID":32197,"ELEMENT_SET_NO":999,"REV_AT_EPOCH":95597,"BSTAR":0.00063369638,"MEAN_MOTION_DOT":1.951e-5,"MEAN_MOTION_DDOT":0},{"OBJECT_NAME":"FENGYUN 1C DEB","OBJECT_ID":"1999-025CUU","EPOCH":"2026-03-06T05:07:27.162048","MEAN_MOTION":14.09558742,"ECCENTRICITY":0.00916671,"INCLINATION":98.3474,"RA_OF_ASC_NODE":211.0037,"ARG_OF_PERICENTER":55.5364,"MEAN_ANOMALY":305.4426,"EPHEMERIS_TYPE":0,"CLASSIFICATION_TYPE":"U","NORAD_CAT_ID":32198,"ELEMENT_SET_NO":999,"REV_AT_EPOCH":58121,"BSTAR":0.0019334773,"MEAN_MOTION_DOT":3.479e-5,"MEAN_MOTION_DDOT":0},{"OBJECT_NAME":"FENGYUN 1C DEB","OBJECT_ID":"1999-025CUW","EPOCH":"2026-03-06T14:43:33.351744","MEAN_MOTION":14.16065964,"ECCENTRICITY":0.00402725,"INCLINATION":98.7811,"RA_OF_ASC_NODE":118.4282,"ARG_OF_PERICENTER":53.6477,"MEAN_ANOMALY":306.8404,"EPHEMERIS_TYPE":0,"CLASSIFICATION_TYPE":"U","NORAD_CAT_ID":32200,"ELEMENT_SET_NO":999,"REV_AT_EPOCH":95550,"BSTAR":0.0010871985,"MEAN_MOTION_DOT":2.121e-5,"MEAN_MOTION_DDOT":0},{"OBJECT_NAME":"FENGYUN 1C DEB","OBJECT_ID":"1999-025CUZ","EPOCH":"2026-03-05T15:54:09.539424","MEAN_MOTION":15.49261356,"ECCENTRICITY":0.0121523,"INCLINATION":97.0079,"RA_OF_ASC_NODE":318.3652,"ARG_OF_PERICENTER":147.0584,"MEAN_ANOMALY":213.8317,"EPHEMERIS_TYPE":0,"CLASSIFICATION_TYPE":"U","NORAD_CAT_ID":32203,"ELEMENT_SET_NO":999,"REV_AT_EPOCH":76378,"BSTAR":0.00049604,"MEAN_MOTION_DOT":0.00036671,"MEAN_MOTION_DDOT":0},{"OBJECT_NAME":"FENGYUN 1C DEB","OBJECT_ID":"1999-025CVB","EPOCH":"2026-03-05T20:08:07.079712","MEAN_MOTION":14.13974844,"ECCENTRICITY":0.00119067,"INCLINATION":98.6811,"RA_OF_ASC_NODE":71.3292,"ARG_OF_PERICENTER":56.1525,"MEAN_ANOMALY":69.0167,"EPHEMERIS_TYPE":0,"CLASSIFICATION_TYPE":"U","NORAD_CAT_ID":32205,"ELEMENT_SET_NO":999,"REV_AT_EPOCH":95672,"BSTAR":0.00021377705,"MEAN_MOTION_DOT":3.64e-6,"MEAN_MOTION_DDOT":0},{"OBJECT_NAME":"FENGYUN 1C DEB","OBJECT_ID":"1999-025CVD","EPOCH":"2026-02-09T16:33:13.282848","MEAN_MOTION":14.3977982,"ECCENTRICITY":0.00846543,"INCLINATION":99.864,"RA_OF_ASC_NODE":13.4115,"ARG_OF_PERICENTER":329.6656,"MEAN_ANOMALY":209.0182,"EPHEMERIS_TYPE":0,"CLASSIFICATION_TYPE":"U","NORAD_CAT_ID":32207,"ELEMENT_SET_NO":999,"REV_AT_EPOCH":65155,"BSTAR":0.00054335896,"MEAN_MOTION_DOT":1.718e-5,"MEAN_MOTION_DDOT":0},{"OBJECT_NAME":"FENGYUN 1C DEB","OBJECT_ID":"1999-025CVF","EPOCH":"2026-03-05T07:41:33.253728","MEAN_MOTION":13.47446415,"ECCENTRICITY":0.0328175,"INCLINATION":99.4263,"RA_OF_ASC_NODE":12.0874,"ARG_OF_PERICENTER":179.0151,"MEAN_ANOMALY":181.1699,"EPHEMERIS_TYPE":0,"CLASSIFICATION_TYPE":"U","NORAD_CAT_ID":32209,"ELEMENT_SET_NO":999,"REV_AT_EPOCH":91088,"BSTAR":0.0013918,"MEAN_MOTION_DOT":1.141e-5,"MEAN_MOTION_DDOT":0}]
