FENGYUN 1C DEB          
1 32180U 99025CUA 26064.34501365  .00000073  00000+0  10352-3 0  9997
2 32180  99.5725 110.8204 0136282 353.5239  64.2909 13.82350897954094
FENGYUN 1C DEB          
1 32181U 99025CUB 26062.28419317  .00007050  00000+0  15284-2 0  9994
2 32181  99.4724 181.9411 0072818 204.2643 186.6844 14.56875239978937
FENGYUN 1C DEB          
1 32183U 99025CUD 26065.09639771  .00001136  00000+0  65829-3 0  9996
2 32183  98.7010 118.6551 0043294 181.9964 178.1041 14.10310762739399
FENGYUN 1C DEB          
1 32184U 99025CUE 26049.38342000  .00207585  00000+0  20372-2 0  9996
2 32184  98.1181 202.4936 0038431 104.8832 255.6686 15.64462753994530
FENGYUN 1C DEB          
1 32185U 99025CUF 26065.55904968  .00085678  00000+0  35111-2 0  9995
2 32185  98.8973 290.2927 0128353  97.5584 264.0246 15.16639487962805
FENGYUN 1C DEB          
1 32186U 99025CUG 26056.91900708  .00000803  00000+0  65982-3 0  9991
2 32186  99.5999 113.1799 0270894   4.8015 175.9966 13.76696057636447
FENGYUN 1C DEB          
1 32187U 99025CUH 26064.15716788  .00000306  00000+0  41796-3 0  9995
2 32187  99.4936 144.5032 0292474 299.5418  87.9819 13.50552022673719
FENGYUN 1C DEB          
1 32191U 99025CUM 26058.39701886  .00002650  00000+0  10874-2 0  9998
2 32191  98.6977 118.9282 0090457 323.9730  35.5374 14.25723753655931
FENGYUN 1C DEB          
1 32192U 99025CUN 26065.59605512  .00000416  00000+0  37142-3 0  9994
2 32192  98.6458 294.6986 0181020 295.4056  62.8460 13.82588065938716
FENGYUN 1C DEB          
1 32197U 99025CUT 26063.70759579  .00001951  00000+0  63370-3 0  9990
2 32197  98.9013 340.0425 0161918 350.5551  38.7411 14.32888498955976
FENGYUN 1C DEB          
1 32198U 99025CUU 26065.21350882  .00003479  00000+0  19335-2 0  9991
2 32198  98.3474 211.0037 0091667  55.5364 305.4426 14.09558742581217
FENGYUN 1C DEB          
1 32200U 99025CUW 26065.61358046  .00002121  00000+0  10872-2 0  9999
2 32200  98.7811 118.4282 0040272  53.6477 306.8404 14.16065964955507
FENGYUN 1C DEB          
1 32203U 99025CUZ 26064.66261041  .00036671  00000+0  49604-3 0  9997
2 32203  97.0079 318.3652 0121523 147.0584 213.8317 15.49261356763783
FENGYUN 1C DEB          
1 32205U 99025CVB 26064.83897083  .00000364  00000+0  21378-3 0  9997
2 32205  98.6811  71.3292 0011906  56.1525  69.0167 14.13974844956725
FENGYUN 1C DEB          
1 32207U 99025CVD 26040.68973707  .00001718  00000+0  54336-3 0  9998
2 32207  99.8640  13.4115 0084654 329.6656 209.0182 14.39779820651555
FENGYUN 1C DEB          
1 32209U 99025CVF 26064.32052377  .00001141  00000+0  13918-2 0  9998
2 32209  99.4263  12.0874 0328175 179.0151 181.1699 13.47446415910883
